H1 CPF 01  gfz 2022 07 11 12  6922 tandemx   
H2 1003001  6202 36605    2022 07 11 12 59 42 2022 07 16 00 00 42   120 1 1  0 0 0
H9
10 0 59775  48942.000000  0    2313086.070   3529056.036   5434969.174
10 0 59775  49062.000000  0    2092395.354   2785809.867   5932174.806
10 0 59775  49182.000000  0    1821777.023   1998221.236   6325066.924
10 0 59775  49302.000000  0    1505318.774   1180891.569   6606774.832
10 0 59775  49422.000000  0    1148162.045    348848.908   6772377.500
10 0 59775  49542.000000  0     756417.676   -482727.927   6818983.391
10 0 59775  49662.000000  0     337061.126  -1298785.563   6745779.550
10 0 59775  49782.000000  0    -102192.013  -2084668.928   6554045.013
10 0 59775  49902.000000  0    -553028.098  -2826384.588   6247129.501
10 0 59775  50022.000000  0   -1006691.618  -3510850.928   5830396.699
10 0 59775  50142.000000  0   -1454152.206  -4126129.500   5311135.016
10 0 59775  50262.000000  0   -1886282.900  -4661637.225   4698438.606
10 0 59775  50382.000000  0   -2294046.858  -5108336.385   4003055.386
10 0 59775  50502.000000  0   -2668687.338  -5458896.688   3237201.833
10 0 59775  50622.000000  0   -3001915.365  -5707822.966   2414347.844
10 0 59775  50742.000000  0   -3286091.288  -5851547.026   1548978.020
10 0 59775  50862.000000  0   -3514396.442  -5888482.270    656332.279
10 0 59775  50982.000000  0   -3680990.390  -5819038.581   -247869.348
10 0 59775  51102.000000  0   -3781149.695  -5645597.195  -1147711.995
10 0 59775  51222.000000  0   -3811384.324  -5372445.160  -2027375.484
10 0 59775  51342.000000  0   -3769528.724  -5005671.002  -2871420.625
10 0 59775  51462.000000  0   -3654805.122  -4553024.975  -3665065.815
10 0 59775  51582.000000  0   -3467857.679  -4023748.548  -4394447.461
10 0 59775  51702.000000  0   -3210758.018  -3428378.714  -5046859.676
10 0 59775  51822.000000  0   -2886982.504  -2778531.509  -5610969.840
10 0 59775  51942.000000  0   -2501362.468  -2086670.301  -6077006.392
10 0 59775  52062.000000  0   -2060008.557  -1365864.232  -6436918.026
10 0 59775  52182.000000  0   -1570210.234   -629540.719  -6684501.458
10 0 59775  52302.000000  0   -1040314.158    108762.208  -6815496.333
10 0 59775  52422.000000  0    -479583.851    835639.021  -6827649.782
10 0 59775  52542.000000  0     101959.128   1538053.780  -6720751.097
10 0 59775  52662.000000  0     693708.674   2203567.371  -6496635.276
10 0 59775  52782.000000  0    1284663.127   2820553.706  -6159157.255
10 0 59775  52902.000000  0    1863625.764   3378400.912  -5714132.290
10 0 59775  53022.000000  0    2419412.986   3867693.988  -5169245.260
10 0 59775  53142.000000  0    2941068.030   4280376.339  -4533929.591
10 0 59775  53262.000000  0    3418076.535   4609888.789  -3819215.294
10 0 59775  53382.000000  0    3840579.784   4851281.585  -3037546.807
10 0 59775  53502.000000  0    4199581.749   5001296.373  -2202572.424
10 0 59775  53622.000000  0    4487142.905   5058415.037  -1328908.469
10 0 59775  53742.000000  0    4696557.846   5022876.070   -431882.890
10 0 59775  53862.000000  0    4822511.084   4896654.130    472739.203
10 0 59775  53982.000000  0    4861204.685   4683403.988   1369039.256
10 0 59775  54102.000000  0    4810457.493   4388372.469   2241232.466
10 0 59775  54222.000000  0    4669773.355   4018277.699   3073955.464
10 0 59775  54342.000000  0    4440372.700   3581157.881   3852545.777
10 0 59775  54462.000000  0    4125188.501   3086195.131   4563305.187
10 0 59775  54582.000000  0    3728829.329   2543519.936   5193742.823
10 0 59775  54702.000000  0    3257506.950   1963999.399   5732795.879
10 0 59775  54822.000000  0    2718932.232   1359016.034   6171019.096
10 0 59775  54942.000000  0    2122184.146    740240.949   6500744.507
10 0 59775  55062.000000  0    1477552.802    119407.824   6716208.507
10 0 59775  55182.000000  0     796359.569   -491908.190   6813648.203
10 0 59775  55302.000000  0      90756.683  -1082506.610   6791363.937
10 0 59775  55422.000000  0    -626489.974  -1641766.612   6649746.332
10 0 59775  55542.000000  0   -1342231.674  -2159838.037   6391269.000
10 0 59775  55662.000000  0   -2043176.228  -2627814.561   6020446.449
10 0 59775  55782.000000  0   -2716132.754  -3037887.324   5543761.602
10 0 59775  55902.000000  0   -3348262.303  -3383479.205   4969560.800
10 0 59775  56022.000000  0   -3927327.992  -3659354.088   4307912.260
10 0 59775  56142.000000  0   -4441936.070  -3861698.881   3570432.863
10 0 59775  56262.000000  0   -4881764.866  -3988177.567   2770086.834
10 0 59775  56382.000000  0   -5237777.708  -4037956.447   1920958.621
10 0 59775  56502.000000  0   -5502413.975  -4011698.823   1038001.124
10 0 59775  56622.000000  0   -5669752.141  -3911527.961    136766.106
10 0 59775  56742.000000  0   -5735641.455  -3740960.217   -766877.696
10 0 59775  56862.000000  0   -5697798.463  -3504809.719  -1657033.627
10 0 59775  56982.000000  0   -5555864.169  -3209065.826  -2518066.357
10 0 59775  57102.000000  0   -5311421.873  -2860748.324  -3334882.320
10 0 59775  57222.000000  0   -4967976.589  -2467744.492  -4093197.322
10 0 59775  57342.000000  0   -4530897.108  -2038631.985  -4779785.627
10 0 59775  57462.000000  0   -4007322.392  -1582492.659  -5382706.638
10 0 59775  57582.000000  0   -3406035.158  -1108720.958  -5891505.289
10 0 59775  57702.000000  0   -2737306.357   -626831.551  -6297382.890
10 0 59775  57822.000000  0   -2012714.335   -146270.666  -6593337.848
10 0 59775  57942.000000  0   -1244941.477    323765.171  -6774274.631
10 0 59775  58062.000000  0    -447554.230    774499.834  -6837081.055
10 0 59775  58182.000000  0     365231.465   1197737.258  -6780675.824
10 0 59775  58302.000000  0    1178796.258   1586005.719  -6606025.692
10 0 59775  58422.000000  0    1978374.820   1932687.318  -6316132.952
10 0 59775  58542.000000  0    2749318.622   2232129.793  -5915989.156
10 0 59775  58662.000000  0    3477360.779   2479738.488  -5412497.265
10 0 59775  58782.000000  0    4148877.696   2672047.472  -4814363.807
10 0 59775  58902.000000  0    4751146.789   2806769.501  -4131960.461
10 0 59775  59022.000000  0    5272593.138   2882822.429  -3377153.670
10 0 59775  59142.000000  0    5703018.641   2900331.510  -2563106.193
10 0 59775  59262.000000  0    6033811.742   2860608.246  -1704053.061
10 0 59775  59382.000000  0    6258129.223   2766103.412   -815052.127
10 0 59775  59502.000000  0    6371045.698   2620336.478     88282.677
10 0 59775  59622.000000  0    6369666.098   2427801.579    990062.712
10 0 59775  59742.000000  0    6253197.477   2193853.129   1874410.649
10 0 59775  59862.000000  0    6022981.049   1924575.494   2725748.970
10 0 59775  59982.000000  0    5682479.209   1626636.701   3529083.536
10 0 59775  60102.000000  0    5237219.714   1307132.182   4270274.822
10 0 59775  60222.000000  0    4694697.519    973421.730   4936290.281
10 0 59775  60342.000000  0    4064240.592    632965.110   5515433.754
10 0 59775  60462.000000  0    3356839.816    293158.237   5997550.084
10 0 59775  60582.000000  0    2584947.549    -38824.273   6374197.511
10 0 59775  60702.000000  0    1762253.112   -356176.940   6638788.836
10 0 59775  60822.000000  0     903436.561   -652600.487   6786701.914
10 0 59775  60942.000000  0      23903.604   -922425.627   6815355.886
10 0 59775  61062.000000  0    -860491.222  -1160720.475   6724252.256
10 0 59775  61182.000000  0   -1733729.538  -1363380.797   6514982.174
10 0 59775  61302.000000  0   -2579917.601  -1527200.425   6191199.258
10 0 59775  61422.000000  0   -3383573.936  -1649921.201   5758561.148
10 0 59775  61542.000000  0   -4129916.092  -1730263.595   5224638.597
10 0 59775  61662.000000  0   -4805138.155  -1767936.721   4598788.366
10 0 59775  61782.000000  0   -5396673.369  -1763626.271   3891993.543
10 0 59775  61902.000000  0   -5893435.588  -1718960.314   3116673.235
10 0 59775  62022.000000  0   -6286035.366  -1636454.489   2286466.266
10 0 59775  62142.000000  0   -6566968.105  -1519438.441   1415990.524
10 0 59775  62262.000000  0   -6730766.096  -1371963.709    520578.930
10 0 59775  62382.000000  0   -6774109.150  -1198695.154   -383998.468
10 0 59775  62502.000000  0   -6695892.430  -1004789.205  -1281821.377
10 0 59775  62622.000000  0   -6497249.031   -795762.200  -2157108.269
10 0 59775  62742.000000  0   -6181528.044   -577352.693  -2994500.375
10 0 59775  62862.000000  0   -5754229.132   -355381.446  -3779336.685
10 0 59775  62982.000000  0   -5222894.107   -135610.652  -4497912.466
10 0 59775  63102.000000  0   -4596960.538     76392.562  -5137715.664
10 0 59775  63222.000000  0   -3887582.155    275384.894  -5687638.859
10 0 59775  63342.000000  0   -3107419.002    456565.049  -6138162.678
10 0 59775  63462.000000  0   -2270404.530    615679.306  -6481507.974
10 0 59775  63582.000000  0   -1391494.875    749112.469  -6711758.791
10 0 59775  63702.000000  0    -486402.382    853963.336  -6824953.947
10 0 59775  63822.000000  0     428679.959    928103.432  -6819146.175
10 0 59775  63942.000000  0    1337359.689    970217.500  -6694433.118
10 0 59775  64062.000000  0    2223332.592    979826.377  -6452958.040
10 0 59775  64182.000000  0    3070669.564    957291.649  -6098876.768
10 0 59775  64302.000000  0    3864098.882    903801.731  -5638292.720
10 0 59775  64422.000000  0    4589279.173    821339.079  -5079162.122
10 0 59775  64542.000000  0    5233061.383    712629.754  -4431168.623
10 0 59775  64662.000000  0    5783734.035    581075.920  -3705566.108
10 0 59775  64782.000000  0    6231245.378    430671.712  -2914992.169
10 0 59775  64902.000000  0    6567398.730    265904.831  -2073254.918
10 0 59775  65022.000000  0    6786016.563     91645.142  -1195094.016
10 0 59775  65142.000000  0    6883065.503    -86976.837   -295920.179
10 0 59775  65262.000000  0    6856740.225   -264698.204    608459.596
10 0 59775  65382.000000  0    6707504.299   -436256.645   1502127.257
99
